NORAD_CAT_ID,OBJECT_NAME,OBJECT_TYPE,EPOCH,MEAN_MOTION,ECCENTRICITY,INCLINATION,RA_OF_ASC_NODE,ARG_OF_PERICENTER,MEAN_ANOMALY,BSTAR,MEAN_MOTION_DOT,MEAN_MOTION_DDOT,TLE_LINE0,TLE_LINE1,TLE_LINE2,SEMIMAJOR_AXIS,PERIOD,APOGEE,PERIGEE,DECAYED
52463.0,STARLINK-3885,PAYLOAD,2022-08-19 22:00:00,15.08850376,0.000161,53.2138,115.0517,53.3355,69.4811,-0.0030096,-0.00047881,0.0,0 STARLINK-3885,1 52463U 22049N   22231.91667824 -.00047881  00000-0 -30096-2 0  9990,2 52463  53.2138 115.0517 0001610  53.3355  69.4811 15.08850376 16623,6917.849,95.437,540.827,538.6,0.0
52463.0,STARLINK-3885,PAYLOAD,2022-08-20 14:00:01,15.08802864,0.0001404,53.2141,112.0574,56.987,88.9942,0.0029176,0.00046404,0.0,0 STARLINK-3885,1 52463U 22049N   22232.58334491  .00046404  00000-0  29176-2 0  9990,2 52463  53.2141 112.0574 0001404  56.9870  88.9942 15.08802864  1308,6917.994000000002,95.44,540.83,538.888,0.0
52463.0,STARLINK-3885,PAYLOAD,2022-08-20 16:00:00,15.08819565,0.000144,53.2142,111.6835,58.75899999999999,180.1071,0.0015607,0.00024624,0.0,0 STARLINK-3885,1 52463U 22049N   22232.66667824  .00024624  00000-0  15607-2 0  9992,2 52463  53.2142 111.6835 0001440  58.7590 180.1071 15.08819565 16741,6917.943,95.439,540.804,538.812,0.0
52463.0,STARLINK-3885,PAYLOAD,2022-08-20 22:00:00,15.08834822,0.0001557,53.2141,110.5626,52.4953,105.0559,-0.00073212,-0.00011919,0.0,0 STARLINK-3885,1 52463U 22049N   22232.91667824 -.00011919  00000-0 -73212-3 0  9992,2 52463  53.2141 110.5626 0001557  52.4953 105.0559 15.08834822  1305,6917.896,95.438,540.8380000000002,538.684,0.0
52463.0,STARLINK-3885,PAYLOAD,2022-08-21 06:00:00,15.08841957,0.0001563,53.2139,109.066,50.6891,118.4354,-0.00097512,-0.00015774,0.0,0 STARLINK-3885,1 52463U 22049N   22233.25001157 -.00015774  00000-0 -97512-3 0  9993,2 52463  53.2139 109.0660 0001563  50.6891 118.4354 15.08841957 16822,6917.874,95.437,540.821,538.658,0.0
52463.0,STARLINK-3885,PAYLOAD,2022-08-21 14:00:01,15.08826203,0.0001441999999999,53.2141,107.5683,59.8151,120.9044,0.0017148,0.00027098,0.0,0 STARLINK-3885,1 52463U 22049N   22233.58334491  .00027098  00000-0  17148-2 0  9995,2 52463  53.2141 107.5683 0001442  59.8151 120.9044 15.08826203  1307,6917.9230000000025,95.438,540.785,538.79,0.0
52463.0,STARLINK-3885,PAYLOAD,2022-08-21 22:00:00,15.08836084,0.0001634,53.2141,106.0736,55.6382,136.6762,-0.0022345,-0.00035671,0.0,0 STARLINK-3885,1 52463U 22049N   22233.91667824 -.00035671  00000-0 -22345-2 0  9994,2 52463  53.2141 106.0736 0001634  55.6382 136.6762 15.08836084  1302,6917.892,95.438,540.888,538.627,0.0
52463.0,STARLINK-3885,PAYLOAD,2022-08-22 06:00:00,15.08833553,0.0001645,53.2137,104.5768,55.7575,148.1263,-0.0014687,-0.00023582,0.0,0 STARLINK-3885,1 52463U 22049N   22234.25001157 -.00023582  00000-0 -14687-2 0  9991,2 52463  53.2137 104.5768 0001645  55.7575 148.1263 15.08833553 16973,6917.9,95.438,540.903,538.627,0.0
52463.0,STARLINK-3885,PAYLOAD,2022-08-22 12:00:00,15.08801655,0.0001519,53.2138,103.4535,61.9709,60.6053,0.0027639,0.00043928,0.0,0 STARLINK-3885,1 52463U 22049N   22234.50001157  .00043928  00000-0  27639-2 0  9994,2 52463  53.2138 103.4535 0001519  61.9709  60.6053 15.08801655  1306,6917.998000000001,95.44,540.913,538.812,0.0
52463.0,STARLINK-3885,PAYLOAD,2022-08-22 22:00:00,15.08828479,0.0001695,53.2137,101.5847,58.2476,168.7941,-0.00040265,-6.689e-05,0.0,0 STARLINK-3885,1 52463U 22049N   22234.91667824 -.00006689  00000-0 -40265-3 0  9994,2 52463  53.2137 101.5847 0001695  58.2476 168.7941 15.08828479 17086,6917.916,95.438,540.953,538.6080000000002,0.0
52463.0,STARLINK-3885,PAYLOAD,2022-08-23 14:00:01,15.08822428,0.0001603,53.2134,98.5902,66.0019,184.2034,0.0018713,0.00029605,0.0,0 STARLINK-3885,1 52463U 22049N   22235.58334491  .00029605  00000-0  18713-2 0  9992,2 52463  53.2134  98.5902 0001603  66.0019 184.2034 15.08822428  1301,6917.934,95.439,540.908,538.69,0.0
52463.0,STARLINK-3885,PAYLOAD,2022-08-23 22:00:01,15.08833966,0.0001753,53.2133,97.0955,59.4911,202.3664,-0.00010983,-2.035e-05,0.0,0 STARLINK-3885,1 52463U 22049N   22235.91668981 -.00002035  00000-0 -10983-3 0  9995,2 52463  53.2133  97.0955 0001753  59.4911 202.3664 15.08833966 17234,6917.899,95.438,540.977,538.5509999999998,0.0
52463.0,STARLINK-3885,PAYLOAD,2022-08-24 14:00:01,15.08832605,0.0001675,53.2132,94.1008,66.6172,218.3599,0.0017702,0.00027991,0.0,0 STARLINK-3885,1 52463U 22049N   22236.58334491  .00027991  00000-0  17702-2 0  9996,2 52463  53.2132  94.1008 0001675  66.6172 218.3599 15.08832605  1306,6917.903,95.438,540.927,538.609,0.0
52463.0,STARLINK-3885,PAYLOAD,2022-08-24 22:00:00,15.088407,0.0001831999999999,53.2132,92.6061,59.9231,236.6552,0.00017729,2.535e-05,0.0,0 STARLINK-3885,1 52463U 22049N   22236.91667824  .00002535  00000-0  17729-3 0  9999,2 52463  53.2132  92.6061 0001832  59.9231 236.6552 15.08840700  1301,6917.878000000002,95.438,541.011,538.476,0.0
52463.0,STARLINK-3885,PAYLOAD,2022-08-25 06:00:02,15.08865863,0.0001756,53.2132,91.1088,59.8114,248.423,-0.0022559999999999,-0.00036039,0.0,0 STARLINK-3885,1 52463U 22049N   22237.25002315 -.00036039  00000-0 -22560-2 0  9991,2 52463  53.2132  91.1088 0001756  59.8114 248.4230 15.08865863 17430,6917.801,95.436,540.881,538.452,0.0
52463.0,STARLINK-3885,PAYLOAD,2022-08-25 14:00:01,15.08857334,0.0001719,53.2153,89.60700000000001,65.1814,254.6018,-0.0004155,-6.898e-05,0.0,0 STARLINK-3885,1 52463U 22049N   22237.58334491 -.00006898  00000-0 -41550-3 0  9991,2 52463  53.2153  89.6070 0001719  65.1814 254.6018 15.08857334  1308,6917.8269999999975,95.436,540.882,538.503,0.0
52463.0,STARLINK-3885,PAYLOAD,2022-08-25 22:00:00,15.08857775,0.0001873,53.2134,88.1165,59.7945,271.601,-0.001103,-0.00017808,0.0,0 STARLINK-3885,1 52463U 22049N   22237.91667824 -.00017808  00000-0 -11030-2 0  9999,2 52463  53.2134  88.1165 0001873  59.7945 271.6010 15.08857775  1301,6917.826,95.436,540.987,538.395,0.0
52463.0,STARLINK-3885,PAYLOAD,2022-08-26 14:00:01,15.08832673,0.0001706999999999,53.2137,85.1215,65.7694,288.8915,0.0013128,0.00020663,0.0,0 STARLINK-3885,1 52463U 22049N   22238.58335648  .00020663  00000-0  13128-2 0  9990,2 52463  53.2137  85.1215 0001707  65.7694 288.8915 15.08832673  1305,6917.903,95.438,540.9490000000002,538.587,0.0
52463.0,STARLINK-3885,PAYLOAD,2022-08-26 22:00:00,15.08831017,0.0001865,53.2136,83.6268,59.1397,307.0540000000001,0.00072353,0.00011243,0.0,0 STARLINK-3885,1 52463U 22049N   22238.91667824  .00011243  00000-0  72353-3 0  9991,2 52463  53.2136  83.6268 0001865  59.1397 307.0540 15.08831017  1306,6917.908,95.438,541.063,538.4830000000002,0.0
52463.0,STARLINK-3885,PAYLOAD,2022-08-27 14:00:01,15.08847333,0.0001725,53.2139,80.6319,66.5562,322.8267,0.00084504,0.00013189,0.0,0 STARLINK-3885,1 52463U 22049N   22239.58334491  .00013189  00000-0  84504-3 0  9998,2 52463  53.2139  80.6319 0001725  66.5562 322.8267 15.08847333  1303,6917.858,95.437,540.9159999999998,538.53,0.0
52463.0,STARLINK-3885,PAYLOAD,2022-08-27 22:00:00,15.08850407,0.0001817,53.2138,79.137,59.0796,341.9171,-0.0018135999999999,-0.00029044,0.0,0 STARLINK-3885,1 52463U 22049N   22239.91667824 -.00029044  00000-0 -18136-2 0  9990,2 52463  53.2138  79.1370 0001817  59.0796 341.9171 15.08850407  1302,6917.849,95.437,540.971,538.457,0.0
52463.0,STARLINK-3885,PAYLOAD,2022-08-28 14:00:01,15.08839614,0.0001621,53.214,76.1422,66.3913,357.788,0.00043308,6.611e-05,0.0,0 STARLINK-3885,1 52463U 22049N   22240.58334491  .00006611  00000-0  43308-3 0  9999,2 52463  53.2140  76.1422 0001621  66.3913 357.7880 15.08839614 17930,6917.882,95.438,540.868,538.625,0.0
52463.0,STARLINK-3885,PAYLOAD,2022-08-28 22:00:00,15.08826115,0.0001735,53.2139,74.6472,59.2735,16.5064,0.0014232,0.00022426,0.0,0 STARLINK-3885,1 52463U 22049N   22240.91667824  .00022426  00000-0  14232-2 0  9990,2 52463  53.2139  74.6472 0001735  59.2735  16.5064 15.08826115  1305,6917.9230000000025,95.438,540.988,538.5880000000002,0.0
52463.0,STARLINK-3885,PAYLOAD,2022-08-29 14:00:01,15.08830392,0.0001501,53.2139,71.6526,66.7535,32.2094,-0.00080882,-0.00013134,0.0,0 STARLINK-3885,1 52463U 22049N   22241.58334491 -.00013134  00000-0 -80882-3 0  9998,2 52463  53.2139  71.6526 0001501  66.7535  32.2094 15.08830392  1304,6917.91,95.438,540.813,538.736,0.0
52463.0,STARLINK-3885,PAYLOAD,2022-08-29 16:00:00,15.08833876,0.0001516,53.2139,71.279,64.2343,127.6237,-0.0016209,-0.00025988,0.0,0 STARLINK-3885,1 52463U 22049N   22241.66667824 -.00025988  00000-0 -16209-2 0  9997,2 52463  53.2139  71.2790 0001516  64.2343 127.6237 15.08833876 18091,6917.899,95.438,540.813,538.715,0.0
52463.0,STARLINK-3885,PAYLOAD,2022-08-29 22:00:00,15.08803934,0.0001603,53.2137,70.1577,58.5186,52.0283,0.0018689,0.00029551,0.0,0 STARLINK-3885,1 52463U 22049N   22241.91667824  .00029551  00000-0  18689-2 0  9997,2 52463  53.2137  70.1577 0001603  58.5186  52.0283 15.08803934  1308,6917.991,95.44,540.965,538.747,0.0
52463.0,STARLINK-3885,PAYLOAD,2022-08-30 06:00:00,15.08828638,0.0001488,53.2136,68.6598,63.6546,58.4592,-0.00072206,-0.00011758,0.0,0 STARLINK-3885,1 52463U 22049N   22242.25001157 -.00011758  00000-0 -72206-3 0  9994,2 52463  53.2136  68.6598 0001488  63.6546  58.4592 15.08828638 18185,6917.915,95.438,540.81,538.751,0.0
52463.0,STARLINK-3885,PAYLOAD,2022-08-30 14:00:01,15.08837231,0.0001516,53.2137,67.1632,68.0062,65.6768,-0.00065687,-0.00010726,0.0,0 STARLINK-3885,1 52463U 22049N   22242.58334491 -.00010726  00000-0 -65687-3 0  9999,2 52463  53.2137  67.1632 0001516  68.0062  65.6768 15.08837231  1303,6917.889,95.438,540.803,538.705,0.0
52463.0,STARLINK-3885,PAYLOAD,2022-08-30 22:00:00,15.08810234,0.0001607,53.2136,65.6683,59.1794,86.098,0.0023783,0.00037735,0.0,0 STARLINK-3885,1 52463U 22049N   22242.91667824  .00037735  00000-0  23783-2 0  9992,2 52463  53.2136  65.6683 0001607  59.1794  86.0980 15.08810234  1302,6917.971,95.439,540.948,538.725,0.0
